COSMOS 2490             
1 39485U 13076C   24019.54966210  .00000052  00000+0  30301-3 0  9991
2 39485  82.4847 356.4345 0020049 226.3354 133.6064 12.42884647456604
AIST-1 (RS-41)          
1 39492U 13078C   24019.52371336  .00002945  00000+0  29713-3 0  9996
2 39492  82.4170  39.7868 0018039 342.8571  17.2036 14.90675053543936
KAZEOSAT 1              
1 39731U 14024A   24019.61479911  .00000479  00000+0  15919-3 0  9995
2 39731  98.4104  98.4267 0000910  96.0015 264.1278 14.42020123511790
COSMOS 2496             
1 39761U 14028A   24019.58896152  .00000028  00000+0  12935-3 0  9993
2 39761  82.4468 299.6775 0018891 194.4744 165.5797 12.42886686438247
COSMOS 2497             
1 39762U 14028B   24019.56142336  .00000012  00000+0  16765-4 0  9999
2 39762  82.4518 301.0340 0019575 187.9998 172.0772 12.42873074438241
COSMOS 2498             
1 39763U 14028C   24019.59626624  .00000028  00000+0  13303-3 0  9991
2 39763  82.4478 299.8630 0020205 188.2409 171.8342 12.42931189438271
COSMOS 2499 (RS-47)     
1 39765U 14028E   24019.56457030  .00000013  00000+0  14622-4 0  9993
2 39765  82.4509 125.9799 0230523 266.6632  90.8078 12.82867552452232
SPROUT                  
1 39770U 14029E   24019.38679565  .00053758  00000+0  26725-2 0  9998
2 39770  98.0017 160.5143 0006160 310.0942  49.9750 15.17425352524757
HODOYOSHI-4             
1 40011U 14033B   24019.53555120  .00002622  00000+0  32301-3 0  9992
2 40011  97.5982 236.5307 0025101 335.5892  24.4132 14.83526893518164
UNISAT-6                
1 40012U 14033C   24019.43247206  .00004527  00000+0  61254-3 0  9990
2 40012  97.6842 188.2824 0055304  73.5411 287.1868 14.78398124515701
DEIMOS-2                
1 40013U 14033D   24019.59804017  .00003050  00000+0  33933-3 0  9990
2 40013  97.7006 270.7016 0002020  56.2553 303.8856 14.87848058506649
BUGSAT-1 (TITA)         
1 40014U 14033E   24019.60096247  .00005768  00000+0  44090-3 0  9995
2 40014  98.1472  53.7431 0034383 274.4974  85.2321 15.01901214523176
SAUDISAT 4              
1 40016U 14033G   24019.46840701  .00001459  00000+0  21146-3 0  9993
2 40016  97.6492 192.8568 0048366  56.1514 304.4286 14.76701631516104
APRIZESAT 9             
1 40018U 14033J   24019.40612714  .00001922  00000+0  30594-3 0  9992
2 40018  97.7775 171.3836 0070222 147.1772 213.3827 14.71464783514043
BRITE-CA1 (TORONTO)     
1 40020U 14033L   24019.38183923  .00002969  00000+0  49122-3 0  9996
2 40020  97.8517 162.0756 0083511 209.6635 149.9821 14.68751531512879
DUCHIFAT-1              
1 40021U 14033M   24019.48136398  .00015156  00000+0  11402-2 0  9993
2 40021  98.0766 356.3416 0012531 243.7968 116.1968 15.02583426521617
NANOSATC-BR1            
1 40024U 14033Q   24019.39324322  .00012455  00000+0  10120-2 0  9997
2 40024  98.0603 345.8361 0007449 299.3758  60.6720 14.99728847520776
QB50P1                  
1 40025U 14033R   24019.41950031  .00009980  00000+0  87399-3 0  9995
2 40025  98.0236 335.7782 0008792 302.6947  57.3425 14.96875848520455
DTUSAT-2                
1 40030U 14033W   24019.36551257  .00008019  00000+0  72274-3 0  9990
2 40030  97.9905 328.3314 0008998 300.0409  59.9919 14.95817731520287
FLOCK 1C-4              
1 40031U 14033X   24019.46701614  .00017447  00000+0  13366-2 0  9997
2 40031  98.0587 349.3440 0006150 269.0225  91.0294 15.01905587520702
QB50P2                  
1 40032U 14033Y   24019.60633148  .00009623  00000+0  86510-3 0  9999
2 40032  97.9908 328.5912 0008380 301.6795  58.3608 14.95861488520295
PERSEUS-M1              
1 40039U 14033AF  24019.33460284  .00003911  00000+0  41877-3 0  9996
2 40039  97.9021 306.2602 0012648 335.2332  24.8276 14.89227350519372
POLYITAN-1              
1 40042U 14033AJ  24019.44196343  .00012668  00000+0  10586-2 0  9995
2 40042  98.0369 338.4363 0009804 294.1751  65.8445 14.98626516520385
TIGRISAT                
1 40043U 14033AK  24018.94515507  .00003672  00000+0  50447-3 0  9993
2 40043  97.6764 188.4475 0057758  72.9449 287.8079 14.77768622515266
AISAT                   
1 40054U 14034B   24019.51998351  .00009958  00000+0  11358-2 0  9992
2 40054  98.3521 227.1932 0009329 247.7893 112.2332 14.86302036515561
CANX-4                  
1 40055U 14034C   24019.47929435  .00002555  00000+0  36685-3 0  9992
2 40055  98.3931 208.0528 0012798 312.4684  47.5443 14.77363119514446
CANX-5                  
1 40056U 14034D   24019.48531577  .00002559  00000+0  36733-3 0  9998
2 40056  98.3933 208.0553 0012840 312.7997  47.2132 14.77370555505258
VELOX-I                 
1 40057U 14034E   24019.52793464  .00007359  00000+0  88781-3 0  9992
2 40057  98.3565 227.5449 0008311 267.9971  92.0290 14.84096733515492
GONETS-M 10             
1 40063U 14036C   24019.58819803  .00000060  00000+0  36432-3 0  9991
2 40063  82.5121 133.9867 0020978 259.4098 100.4619 12.42907357432970
METEOR-M 2              
1 40069U 14037A   24019.60627162  .00000295  00000+0  15540-3 0  9993
2 40069  98.4303  20.5907 0006880  76.0625 284.1318 14.20874846494388
DX1                     
1 40071U 14037C   24019.57702852  .00002768  00000+0  33969-3 0  9994
2 40071  98.3425 285.3148 0006710 243.6310 116.4214 14.83972704515363
UKUBE-1                 
1 40074U 14037F   24019.35238255  .00007935  00000+0  80648-3 0  9991
2 40074  98.3401 300.4740 0003367 181.4446 178.6762 14.91089513516434
GAOFEN-2                
1 40118U 14049A   24019.59775154  .00002049  00000+0  27228-3 0  9999
2 40118  97.6857  76.6708 0004720 202.4394 157.6613 14.80777664509080
BRITE-PL2 (HEWELIUSZ)   
1 40119U 14049B   24019.22476305  .00004133  00000+0  45733-3 0  9993
2 40119  97.8809 119.7609 0017143 134.7762 225.4852 14.87798202510278
HODOYOSHI-1             
1 40299U 14070B   24019.60977950  .00021155  00000+0  52127-3 0  9998
2 40299  97.1651  82.2174 0007965 211.3385 148.7388 15.40558306512025
CBERS 4                 
1 40336U 14079A   24019.60618096  .00000308  00000+0  12205-3 0  9992
2 40336  98.4201  91.7156 0001801  80.0770 280.0620 14.35476546477767
SMAP                    
1 40376U 15003A   24019.62604709  .00001159  00000+0  23347-3 0  9996
2 40376  98.1291  28.1252 0001387  97.9317 262.2042 14.63349218478982
GRIFEX                  
1 40379U 15003D   24019.55109375  .00290660  00000+0  14362-2 0  9993
2 40379  99.0820  19.1699 0031407 221.6186 138.2686 15.80571474496992
CP10 (EXOCUBE)          
1 40380U 15003E   24019.43096957  .00071152  00000+0  11234-2 0  9991
2 40380  99.1009   3.0412 0063683 280.6344  78.7735 15.50915954496008
GONETS-M 11             
1 40552U 15020A   24019.57257294  .00000047  00000+0  26593-3 0  9999
2 40552  82.4830 219.0160 0016738 121.3640 238.9080 12.42892220399467
GONETS-M 12             
1 40553U 15020B   24019.62658655  .00000064  00000+0  38978-3 0  9991
2 40553  82.4864 219.8564 0015313 105.9893 254.2875 12.42873621399464
GONETS-M 13             
1 40554U 15020C   24019.59966385 -.00000005  00000+0 -11103-3 0  9998
2 40554  82.4828 218.7712 0013965  91.8666 268.4013 12.42902808399438
DMC3-FM1                
1 40715U 15032A   24019.62575327  .00001400  00000+0  17750-3 0  9998
2 40715  97.7721 262.7599 0007202  67.5092 292.6884 14.83262964459408
DMC3-FM2                
1 40716U 15032B   24019.64900121  .00001422  00000+0  18009-3 0  9997
2 40716  97.7773 263.7545 0009146  70.2936 289.9264 14.83264352459409
DMC3-FM3                
1 40717U 15032C   24019.60325060  .00001410  00000+0  17872-3 0  9991
2 40717  97.7819 264.9043 0010593  67.1312 293.1020 14.83255914459409
CARBONITE 1 (CBNT-1)    
1 40718U 15032D   24019.58935794  .00003451  00000+0  48860-3 0  9998
2 40718  97.6686 226.9640 0014670 293.6985  66.2686 14.77609533459167
DEORBITSAIL             
1 40719U 15032E   24019.57209285  .00009344  00000+0  11196-2 0  9995
2 40719  97.7062 247.9349 0012527 271.8870  88.0910 14.84240752459889
2015-049A               
1 40899U 15049A   24019.60400677  .00021597  00000+0  67917-3 0  9991
2 40899  97.4764  33.2656 0012013 119.0639 241.1808 15.32915201461565
KAITUO 1A               
1 40904U 15049F   24019.56001421  .00032882  00000+0  94615-3 0  9991
2 40904  97.4954  32.5362 0011115 122.3519 237.8801 15.35653059461406
2015-049G               
1 40905U 15049G   24019.55307082  .00012037  00000+0  48602-3 0  9998
2 40905  97.5266  27.4938 0013677 140.9737 219.2490 15.24843226460883
XW-2C                   
1 40906U 15049H   24019.59898647  .00024511  00000+0  74708-3 0  9991
2 40906  97.4898  33.4883 0011965 112.0414 248.2100 15.33885717461488
XW-2D                   
1 40907U 15049J   24019.55564654  .00031334  00000+0  84285-3 0  9998
2 40907  97.4863  34.8140 0010873 103.3102 256.9355 15.37766137461628
LILACSAT-2              
1 40908U 15049K   24019.55808664  .00010094  00000+0  42947-3 0  9990
2 40908  97.5280  27.5407 0013987 147.7975 212.4119 15.23118898460698
XW-2E                   
1 40909U 15049L   24019.58496829  .00145085  00000+0  14463-2 0  9990
2 40909  97.4313  45.1253 0006951  67.0292 293.1700 15.65173805462632
XW-2F                   
1 40910U 15049M   24019.57427267  .00138275  00000+0  14581-2 0  9995
2 40910  97.4419  44.3535 0007619  68.4058 291.8012 15.63760838462482
XW-2B                   
1 40911U 15049N   24019.59331289  .00032089  00000+0  87425-3 0  9990
2 40911  97.4838  35.1263 0010893 104.4731 255.7722 15.37364574461508
KAITUO 1B               
1 40912U 15049P   24019.05231497  .02074521  48068-2  17046-2 0  9991
2 40912  97.3812  51.3614 0001186 231.0273 129.0908 16.15316749463287
COSMOS 2507             
1 40920U 15050A   24019.57390819 -.00000005  00000+0 -10646-3 0  9990
2 40920  82.4905 267.2523 0009926 103.8233 256.3952 12.42881347377580
COSMOS 2508             
1 40921U 15050B   24019.60035245  .00000011  00000+0  73439-5 0  9990
2 40921  82.4856 266.0728 0014040 138.7242 221.4901 12.42891158377577
